COSMOS 2433 (720)       
1 32275U 07052A   24026.09488172 -.00000082  00000+0  00000+0 0  9995
2 32275  65.9838 345.1514 0004511 274.0995  85.8397  2.13104078126454
COSMOS 2432 (719)       
1 32276U 07052B   24028.27789546 -.00000072  00000+0  00000+0 0  9996
2 32276  65.9978 345.1901 0012102 322.3860 218.9293  2.13103397126539
COSMOS 2434 (721)       
1 32393U 07065A   24025.52271824  .00000070  00000+0  00000+0 0  9997
2 32393  64.3261 221.4444 0005108  74.8875  97.8041  2.13103165125186
COSMOS 2436 (723)       
1 32395U 07065C   24028.16723733  .00000063  00000+0  00000+0 0  9995
2 32395  64.3355 221.4177 0017274   9.5359 167.2830  2.13102886125170
COSMOS 2456 (730)       
1 36111U 09070A   24028.48685302  .00000002  00000+0  00000+0 0  9990
2 36111  64.5493 100.7868 0004430 296.0233 147.5987  2.13099007109913
COSMOS 2457 (733)       
1 36112U 09070B   24027.42724565  .00000001  00000+0  00000+0 0  9998
2 36112  64.5331 100.6851 0004665 179.0002 303.6714  2.13101193109856
COSMOS 2460 (732)       
1 36402U 10007C   24028.48477126 -.00000071  00000+0  00000+0 0  9995
2 36402  65.8424 343.7625 0002574 315.9299 248.1981  2.13106325108265
COSMOS 2476 (744)       
1 37867U 11064A   24025.68244104 -.00000010  00000+0  00000+0 0  9995
2 37867  64.8251 102.4646 0023834 236.5534 126.2221  2.13101679 95156
COSMOS 2477 (745)       
1 37868U 11064B   24027.44479192  .00000001  00000+0  00000+0 0  9998
2 37868  64.8330 102.4757 0021066 237.5951 214.9862  2.13101484 95180
COSMOS 2475 (743)       
1 37869U 11064C   24028.41132068  .00000003  00000+0  00000+0 0  9997
2 37869  64.8404 102.4565 0025773 252.6745 179.9971  2.13101687 95207
COSMOS 2485 (747)       
1 39155U 13019A   24027.49781732  .00000002  00000+0  00000+0 0  9993
2 39155  64.9847 102.9574 0024191 232.9136 126.9275  2.13101721 83702
COSMOS 2492 (754)       
1 39620U 14012A   24027.45319396 -.00000076  00000+0  00000+0 0  9995
2 39620  65.7254 343.3946 0015103 319.6048  40.2778  2.13103226 76667
COSMOS 2500 (755)       
1 40001U 14032A   24028.10378033 -.00000073  00000+0  00000+0 0  9995
2 40001  65.6630 343.1889 0006157 225.7227 134.2240  2.13106171 74891
COSMOS 2501 (702K)      
1 40315U 14075A   24027.88622582  .00000061  00000+0  00000+0 0  9991
2 40315  63.6290 220.5901 0018066 203.3390 156.6036  2.13101416 71285
COSMOS 2514 (751)       
1 41330U 16008A   24028.33720275 -.00000072  00000+0  00000+0 0  9999
2 41330  65.4588 342.7259 0010159 225.3000 134.6157  2.13102730 62069
COSMOS 2522 (752)       
1 42939U 17055A   24026.30133905  .00000064  00000+0  00000+0 0  9991
2 42939  64.0895 221.6541 0005239 230.0945 129.8938  2.13101996 49379
COSMOS 2527 (756)       
1 43508U 18053A   24026.72941153 -.00000001  00000+0  00000+0 0  9993
2 43508  65.1452 103.1058 0009417 232.5993 127.3745  2.13102416 43687
COSMOS 2529 (757)       
1 43687U 18086A   24027.29791361  .00000061  00000+0  00000+0 0  9999
2 43687  64.3051 222.0945 0006592 265.3944  94.5609  2.13102113 40706
COSMOS 2534 (758)       
1 44299U 19030A   24027.58934095  .00000061  00000+0  00000+0 0  9994
2 44299  64.3781 222.0245 0009307 292.9287  64.8000  2.13102162 36346
COSMOS 2544 (759)       
1 44850U 19088A   24026.67329664 -.00000002  00000+0  00000+0 0  9995
2 44850  65.1315 102.9476 0014272 255.1730 104.7285  2.13102161 32124
COSMOS 2545 (760)       
1 45358U 20018A   24027.33939469 -.00000078  00000+0  00000+0 0  9991
2 45358  64.7997 342.8864 0010485 258.6220 101.2558  2.13102673 30085
COSMOS 2547 (705K)      
1 46805U 20075A   24027.52771125  .00000062  00000+0  00000+0 0  9998
2 46805  64.6059 221.6260 0005312 234.7475 125.2317  2.13103027 25330
COSMOS 2557 (706K)      
1 52984U 22075A   24027.22197687 -.00000079  00000+0  00000+0 0  9996
2 52984  64.7212 345.0346 0013682 284.5546  75.2877  2.13101903 12134
COSMOS 2559 (707K)      
1 54031U 22130A   24028.10295985 -.00000075  00000+0  00000+0 0  9997
2 54031  64.6922 345.1264 0006663 239.3416 120.5892  2.13101237 10129
COSMOS 2564 (761)       
1 54377U 22161A   24027.82593786  .00000062  00000+0  00000+0 0  9997
2 54377  64.7471 221.6952 0007223 205.8913 154.1004  2.13102217  9065
COSMOS 2569 (703K)      
1 57517U 23114A   24027.84435352  .00000003  00000+0  00000+0 0  9996
2 57517  64.8566 102.1090 0011386 291.5478  68.3956  2.13104329  3690
